#dP2023  9 25  6  0  0.00000000      96 __u+U ITR00 EXT  IAC
## 2281 108000.00000000   900.00000000 60212 0.2500000000000
+  120   C06C07C08C09C10C11C12C13C14C16C19C20C21C22C23C24C25
+        C26C27C28C29C30C32C33C34C35C36C37C38C39C40C41C42C43
+        C44C45C46E02E03E04E05E07E08E09E10E11E12E13E14E15E18
+        E19E21E24E25E26E27E30E31E33E34E36G01G02G03G04G05G06
+        G07G08G09G10G11G12G13G14G15G16G17G18G19G20G21G22G23
+        G24G25G26G27G28G29G30G31G32J02J03J04R01R02R03R04R05
+        R07R08R09R11R12R13R14R15R16R17R18R19R20R21R22R24R25
+        R26  0  0  0  0  0  0  0  0  0  0  0  0  0  0  0  0
++        10 10 10 10 10 10  9  9  8 10 10  8  9  8  9 10  8
++         8  9  9  7  8  9  9  9  9  9  7 10 11 11  9  9  9
++         8  9  9  8  8  8  7  8  8  7  7  8  7  8  7  8  8
++         8  7  7  8  8  8  8  7  7  8  8  8  7  7  7  7  9
++         9  7  7  7  9  8  9  8  7  7  9  9  9  8  8  8  8
++         7  7  7  7  9  9  8  7  8 10 10 11  8  8  7  9  8
++         8  9  7  7  7 10  7  8  9  8  8  7  9  8  9  9  9
++         8  0  0  0  0  0  0  0  0  0  0  0  0  0  0  0  0
%c M  cc GPS ccc cccc cccc cccc cccc ccccc ccccc ccccc ccccc
%c cc cc ccc ccc cccc cccc cccc cccc ccccc ccccc ccccc ccccc
%f  0.0000000  0.000000000  0.00000000000  0.000000000000000
%f  0.0000000  0.000000000  0.00000000000  0.000000000000000
%i    0    0    0    0      0      0      0      0         0
%i    0    0    0    0      0      0      0      0         0
/* IAC                                ULTRA-RAPID PREDICTION
/* S/V CLOCKS ARE ALIGNED TO GNSS TIME                      
/* G:C1WC2W R:C1PC2P E:C1XC5X C:C2IC6I J:C1CC2S             
/* PCV:IGS20_2280 OL/AL:FES2004  NONE     YN ORB:CoN CLK:CoN
*  2023 09 25 13 30  0.00000000
PC06 -17323.276354  31273.689553  22163.780270     29.981081
PC07  -5993.004399  38489.811178  16480.095113    -59.678671
PC08  -4954.990715  20079.356570 -36749.049563    328.490994
PC09 -10664.788412  29986.658885  27787.628389    121.751557
PC10    192.029919  41229.793801  10455.795929   -190.102315
PC11   6952.081549  14697.018548 -22614.058949    170.872306
PC12  -9785.805482  23284.398738 -11845.484823    923.456920
PC13   1962.672005  23449.390631 -34798.272003    357.603986
PC14  13486.028034  23610.628583   6406.270931    470.191527
PC16 -21998.690709  30881.541741  18350.978960    -96.349310
PC19 -16843.181140 -16701.611275 -14673.079956   -970.588731
PC20  -8946.098208 -26392.264772   1188.227786    255.346603
PC21  -5103.019591  20937.325468 -17735.491619   -970.562530
PC22 -15496.838333   3171.403468 -23000.916237   -292.691767
PC23  26808.536256  -1052.903843  -7657.510899   -861.621642
PC24   6824.616607  16720.424064  21258.822349    429.136022
PC25  24475.606591  10004.788868   8879.737854    218.971399
PC26 -12922.205549  13283.008544  20860.109440   -182.716468
PC27  15684.195000 -22749.351531   3899.506694    204.323969
PC28  21725.758533 -12806.437849 -11932.306751    153.455346
PC29 -15166.464357  -6247.948495  22573.624063    179.267139
PC30    603.128216 -21285.807798  18037.736594     -5.463525
PC32   5051.029103 -20871.390548  17822.429638   -528.269844
PC33  16950.407108  16707.654208  14574.400006   -963.992250
PC34    719.936207  20562.860536 -18855.362233    267.241959
PC35 -21263.828771  13523.325531  11948.052168    538.952267
PC36 -23788.911509 -10995.488345  -9579.609804   -209.299083
PC37  13993.769772 -12639.062595 -20548.840511   -836.130488
PC38 -14253.540533  18625.895462 -35031.863683    107.068339
PC39 -24799.712566  31458.225701  12798.491116     -4.946719
PC40 -10301.420868  35725.853832  20160.969738    -37.789064
PC41  15802.195164  -2395.630127  22919.966848   -876.140665
PC42   8079.207944  26593.012863  -2603.624075   -537.917232
PC43  14681.814053   7200.548650 -22621.640113     41.264335
PC44 -14880.115093  23297.045798  -3737.006173    242.282122
PC45 -26655.244960   1350.043795   8197.373378    -29.385976
PC46  -8283.701690 -16557.307186 -20891.802352    -86.983078
PE02 -21482.350592   -707.711691  20361.097242     65.438512
PE03 -17568.141784  10752.365526 -21271.049717    -59.278117
PE04  10704.707450 -26721.417945   6897.637692   -220.003813
PE05 -14218.646451 -11491.449392 -23282.996060     21.629934
PE07   2262.919296  27249.749932  11345.785453    -77.431197
PE08 -10906.005063  26516.634304  -7381.903509   -151.706270
PE09  -2135.877486 -27280.991421 -11274.784062   -168.921899
PE10   7698.321584 -17665.651322  22455.738578   -566.382785
PE11  -4336.925932 -15473.034921  24847.271248   2990.905047
PE12  17421.575891 -17019.658212  16821.968416   -711.514221
PE13   3509.048382  15647.438203 -24878.053114    -19.725728
PE14   2438.189692  29731.818806 -12686.623490    350.504347
PE15 -17807.419512  16908.119787 -16528.002033    -56.070898
PE18  -2065.329621 -21252.863323   9810.174946    571.722482
PE19  17634.931600  -7939.829310  22410.336417  -1557.652823
PE21  23916.895003  16462.189539  -5747.597420   -554.675120
PE24 -11990.683445 -23555.043207 -13354.750067   -340.921116
PE25 -23839.559437 -16695.230571   5421.804873     -2.319568
PE26  22975.615246   4913.643824 -17993.879929    232.808434
PE27  12556.950278  23488.207518  12913.204700   -158.766489
PE30  -6535.732399  16341.304149  23794.213601   -528.621006
PE31   6046.139492 -16602.957572 -23735.601399     -5.946442
PE33  28458.422114  -7864.214938  -1981.534715     -0.191200
PE34 -28385.625602   8318.825011   1354.010333    -68.942221
PE36 -22463.075685  -5251.576659  18550.264621   -121.129993
PG01     92.901899  15081.662290 -22168.926481    164.728964
PG02  -7316.196300  16762.554247 -18694.355498   -549.765083
PG03   9161.186442  21045.851946 -13603.112358   -115.733061
PG04    605.265354  24542.853329   9982.907493    166.269817
PG05   4715.368623 -15100.335653  21137.365896   -144.072561
PG06  25850.950983  -5414.146979  -3190.972800    543.644071
PG07  17568.687052   8583.923738  18657.513989     57.587654
PG08  -5411.262247  25774.589281    330.407588   -144.005919
PG09   8179.689013  18800.196080  16772.192108    -50.099363
PG10 -21681.296055  -8183.376902 -13087.369412    -54.795569
PG11  21467.077394 -12281.569354   9626.295799   -385.639898
PG12  -4708.580830 -21089.952023 -15767.605780   -428.763235
PG13  13396.413918 -21661.785456   6934.803046    576.695828
PG14  21864.341105  11099.587172 -10395.009565    195.403453
PG15   1430.076736 -26386.134167  -1016.870359     80.934410
PG16 -10860.746563  10357.756250  21596.550101   -448.933880
PG17  14619.447902   2497.466804 -21602.995349    723.850123
PG18 -19045.038698  -6786.598313  17323.661635   -428.786793
PG19  16530.257214  -6001.699325 -19996.827700    376.307681
PG20  14952.901451  -7761.672292  20529.522049    410.073641
PG21  -9746.708198  16825.455616 -17135.873021    148.177764
PG22  19951.079079   5644.673626 -15977.784270    115.007870
PG23 -20736.513393 -16660.677524  -1750.571267     73.357352
PG24   3900.560488 -17464.917335 -19884.039527   -329.204848
PG25 -16631.635071 -20264.215702  -5398.839098    469.575761
PG26 -18730.203894   2668.797922  18650.968855    226.710929
PG27 -12688.712518  19870.494066  11556.154190    -45.205095
PG28 -25568.738582   4852.720258  -5332.107953    -14.955353
PG29  -6339.019809 -19036.422449  17305.188508   -609.619754
PG30  24201.255160   1427.167808  11272.850253   -484.581400
PG31 -24439.867842  10017.834740   4262.550838   -223.849660
PG32 -15646.866776   2309.020090 -21125.979572   -563.395044
PJ02 -26338.414349  21855.187383  29726.405451     -4.587617
PJ03 -35694.110705  21868.187781   -711.296475     -3.516553
PJ04 -19657.003510  27399.080498 -20206.440517     70.772802
PR01  -3713.187669 -25075.516166   2813.352838     66.394929
PR02  -9937.004136 -18499.200685 -14496.424703    -22.400593
PR03 -11139.492668  -1070.716012 -22887.524705     85.882410
PR04  -6006.976365  16412.712725 -18549.426278    204.250198
PR05   2156.048128  25061.754077  -4137.744303    119.591530
PR07  11019.400899     13.902049  23035.585272     65.441753
PR08   5935.307140 -16652.043667  18457.466781    -72.667517
PR09  20951.771308  11610.637698   8904.350011    144.179479
PR11  14361.804810  -5244.967305 -20409.872523   -174.876300
PR12  -5418.786602 -12813.176019 -21354.988392     31.666657
PR13 -19525.482179 -12281.458662 -10901.605287    -39.561835
PR14 -23749.940644  -4009.590912   8384.390282     25.304260
PR15 -13210.852555   5990.005997  21003.230569     85.903258
PR16   5233.516318  12609.854682  21567.298563     19.032223
PR17 -19761.451776   8043.756368  14029.211986     20.195204
PR18 -19198.244084  16650.645992  -1930.218826    103.684540
PR19 -10553.049187  16928.974092 -15903.843280   -248.546597
PR20   8389.617313   6555.538865 -23171.824644   -100.645714
PR21  20001.645586  -8553.432867 -13288.061066    -40.697627
PR22  19307.142043 -16412.017807   2978.722061     85.771477
PR24  -9431.964823  -6170.167278  22903.207820    -25.745976
PR25  20160.438733  -6974.528989 -13958.217245     31.209185
PR26   6014.019792 -16275.989467  18703.561326    -22.754263
EOF
